ONEWEB-0055             
1 45443U 20020V   23050.83122774 -.00000277  00000+0 -81679-3 0  9999
2 45443  87.8812 262.1241 0001333  85.4082 274.7198 13.11416365143592
ONEWEB-0093             
1 45444U 20020W   23050.57758284  .00000510  00000+0  14045-2 0  9992
2 45444  87.8807 262.1777 0001227  84.3355 275.7913 13.11415321143614
ONEWEB-0029             
1 45445U 20020X   23050.59889129 -.00000220  00000+0 -65609-3 0  9991
2 45445  87.8811 262.1674 0001506  75.5470 284.5824 13.11419618143595
ONEWEB-0068             
1 45446U 20020Y   23050.87492253  .00000519  00000+0  14297-2 0  9996
2 45446  87.8807 262.1146 0001140  77.7066 282.4189 13.11418904143581
ONEWEB-0046             
1 45447U 20020Z   23050.64267121  .00000480  00000+0  13190-2 0  9994
2 45447  87.8810 262.1725 0001647  84.4375 275.6940 13.11417334143562
ONEWEB-0063             
1 45448U 20020AA  23050.59552639 -.00000098  00000+0 -31137-3 0  9999
2 45448  87.8811 262.1644 0001823  86.1541 273.9795 13.11414722143639
ONEWEB-0019             
1 45449U 20020AB  23050.57084680  .00000538  00000+0  14825-2 0  9995
2 45449  87.8807 262.1771 0001464  93.2845 266.8451 13.11418156143470
ONEWEB-0094             
1 45450U 20020AC  23050.77714793  .00000013  00000+0  44635-6 0  9998
2 45450  87.9185 246.9568 0001504  87.6612 272.4692 13.18139730146513
ONEWEB-0087             
1 45451U 20020AD  23050.60449504 -.00000445  00000+0 -12910-2 0  9994
2 45451  87.8744 262.1341 0001470  72.4689 287.6600 13.11414166143528
ONEWEB-0082             
1 45452U 20020AE  23050.60673739 -.00000461  00000+0 -13356-2 0  9997
2 45452  87.8813 262.1368 0001128  71.1711 288.9539 13.11415268143616
ONEWEB-0050             
1 45453U 20020AF  23050.54646023 -.00003983  00000+0 -32466-3 0  9993
2 45453  87.5453 162.8919 0027216  34.5506 325.7489 14.99572223159267
ONEWEB-0034             
1 45454U 20020AG  23050.62468703 -.00000138  00000+0 -42557-3 0  9991
2 45454  87.8803 262.1522 0001472  79.3182 280.8111 13.11416036143535
ONEWEB-0060             
1 45455U 20020AH  23050.86146040  .00000094  00000+0  22925-3 0  9991
2 45455  87.8811 262.1161 0001507  84.5339 275.5960 13.11415196143534
ONEWEB-0086             
1 45456U 20020AJ  23050.57533805  .00000531  00000+0  14614-2 0  9990
2 45456  87.8813 262.1663 0001406  79.2407 280.8880 13.11417541143546
ONEWEB-0088             
1 45457U 20020AK  23050.62694419 -.00000198  00000+0 -59436-3 0  9999
2 45457  87.8807 262.1548 0001611  78.9655 281.1654 13.11418080143497
ONEWEB-0102             
1 47258U 20100A   23050.51494016 -.00000155  00000+0 -46725-3 0  9998
2 47258  87.8969 231.7564 0001313 106.3554 253.7718 13.12440340105534
ONEWEB-0109             
1 47259U 20100B   23050.52553720 -.00000312  00000+0 -90316-3 0  9998
2 47259  87.8932 231.7703 0001494  93.4037 266.7262 13.12443126105366
ONEWEB-0110             
1 47260U 20100C   23050.54884039  .00000064  00000+0  14304-3 0  9997
2 47260  87.8931 231.7373 0001276  99.2531 260.8742 13.12444655105536
ONEWEB-0111             
1 47261U 20100D   23050.50436239  .00000181  00000+0  46871-3 0  9993
2 47261  87.8929 231.7293 0001400 103.0801 257.0484 13.12450537105366
ONEWEB-0114             
1 47262U 20100E   23050.53613380 -.00000287  00000+0 -83245-3 0  9996
2 47262  87.8930 231.7479 0001762 115.9203 244.2107 13.12442063105325
ONEWEB-0117             
1 47263U 20100F   23050.52765712 -.00000311  00000+0 -89878-3 0  9999
2 47263  87.8934 231.7769 0001542  93.4363 266.6942 13.12443246105335
ONEWEB-0118             
1 47264U 20100G   23050.55942747  .00000367  00000+0  98565-3 0  9990
2 47264  87.8936 231.7239 0002175 105.4565 254.6803 13.12442395105530
ONEWEB-0119             
1 47265U 20100H   23050.51072244 -.00000049  00000+0 -17040-3 0  9991
2 47265  87.8965 231.7574 0001428  93.1171 267.0121 13.12442659105502
ONEWEB-0120             
1 47266U 20100J   23050.54139514 -.00000724  00000+0 -20480-2 0  9990
2 47266  87.8895 231.7772 0001621 102.4468 257.6842 13.12441899105536
ONEWEB-0121             
1 47267U 20100K   23050.52343230 -.00000322  00000+0 -93069-3 0  9999
2 47267  87.8927 231.7557 0001404  89.2300 270.8990 13.12442262105446
ONEWEB-0122             
1 47268U 20100L   23050.51706012 -.00000273  00000+0 -79450-3 0  9993
2 47268  87.8931 231.7509 0001385 100.7540 259.3745 13.12439383105352
ONEWEB-0123             
1 47269U 20100M   23050.58906431 -.00000430  00000+0 -12313-2 0  9997
2 47269  87.8958 231.7448 0001533  95.6285 264.5018 13.12441234105503
ONEWEB-0124             
1 47270U 20100N   23050.57637183  .00000283  00000+0  75046-3 0  9990
2 47270  87.8929 231.7456 0001212  81.5548 278.5718 13.12439431105386
ONEWEB-0125             
1 47271U 20100P   23050.55306984  .00000242  00000+0  63602-3 0  9991
2 47271  87.8932 231.7671 0001585  98.7204 261.4104 13.12443114105442
ONEWEB-0126             
1 47272U 20100Q   23050.50331720  .00000186  00000+0  48139-3 0  9998
2 47272  87.8932 231.7725 0001446 103.2228 256.9062 13.12438219105506
ONEWEB-0127             
1 47273U 20100R   23050.54247808 -.00000132  00000+0 -40280-3 0  9998
2 47273  87.8967 231.7388 0001529  98.4496 261.6806 13.12445991105531
ONEWEB-0128             
1 47274U 20100S   23050.56366137  .00000360  00000+0  96620-3 0  9998
2 47274  87.8939 231.7316 0001060  96.6532 263.4717 13.12441390105555
ONEWEB-0129             
1 47275U 20100T   23050.54460837 -.00000039  00000+0 -14512-3 0  9994
2 47275  87.8928 231.7779 0002578 137.0890 223.0440 13.12444973105486
ONEWEB-0130             
1 47276U 20100U   23050.57002391  .00000432  00000+0  11650-2 0  9999
2 47276  87.8928 231.7660 0001400  95.8154 264.3134 13.12442014105452
ONEWEB-0131             
1 47277U 20100V   23050.56789546  .00000406  00000+0  10944-2 0  9999
2 47277  87.8928 231.7113 0001342  90.2312 269.8970 13.12441427105495
ONEWEB-0132             
1 47278U 20100W   23050.52130296 -.00000261  00000+0 -76097-3 0  9991
2 47278  87.8929 231.7219 0001581 102.5492 257.5813 13.12442171105380
ONEWEB-0133             
1 47279U 20100X   23050.53822986 -.00000239  00000+0 -70025-3 0  9997
2 47279  87.8966 231.7547 0001397  92.0164 268.1125 13.12440926105548
ONEWEB-0134             
1 47280U 20100Y   23050.81142485  .00000150  00000+0  38243-3 0  9995
2 47280  87.8923 231.6889 0001226 102.2684 257.8582 13.12440784105558
ONEWEB-0135             
1 47281U 20100Z   23050.55095498  .00000185  00000+0  48029-3 0  9999
2 47281  87.8964 231.7354 0001335  99.8190 260.3089 13.12443706105543
ONEWEB-0136             
1 47282U 20100AA  23050.80084942  .00000368  00000+0  98723-3 0  9999
2 47282  87.8930 231.7281 0001045 119.9133 240.2100 13.12443646105505
ONEWEB-0137             
1 47283U 20100AB  23050.53190530 -.00000366  00000+0 -10526-2 0  9995
2 47283  87.8928 231.7462 0001618  99.6458 260.4853 13.12448007105374
ONEWEB-0138             
1 47284U 20100AC  23050.50859824 -.00000064  00000+0 -21346-3 0  9999
2 47284  87.8930 231.7622 0001420 101.7576 258.3712 13.12449611105454
ONEWEB-0139             
1 47285U 20100AD  23050.55731548  .00000318  00000+0  84911-3 0  9994
2 47285  87.8930 231.7914 0001215  96.4954 263.6313 13.12443330105538
ONEWEB-0140             
1 47286U 20100AE  23050.57849020  .00000195  00000+0  50752-3 0  9991
2 47286  87.8931 231.7217 0001320  98.7290 261.3988 13.12441583105509
ONEWEB-0141             
1 47287U 20100AF  23050.52446045 -.00000927  00000+0 -26137-2 0  9991
2 47287  87.8929 231.7317 0001889  96.7197 263.4147 13.12435621105485
ONEWEB-0142             
1 47288U 20100AG  23050.51602506 -.00000150  00000+0 -45283-3 0  9999
2 47288  87.8930 231.7838 0001585 100.7303 259.4004 13.12437891105471
ONEWEB-0143             
1 47289U 20100AH  23050.54670829  .00000023  00000+0  28581-4 0  9996
2 47289  87.8930 231.7391 0001501  92.6819 267.4482 13.12445240105459
ONEWEB-0144             
1 47290U 20100AJ  23050.51919393 -.00000273  00000+0 -79482-3 0  9991
2 47290  87.8930 231.7596 0001300 104.9984 255.1289 13.12440931105377
ONEWEB-0145             
1 47291U 20100AK  23050.56579720  .00000539  00000+0  14623-2 0  9991
2 47291  87.8965 231.7478 0001544  98.0297 262.1006 13.12442574105577
ONEWEB-0146             
1 47292U 20100AL  23050.56154806  .00001022  00000+0  28050-2 0  9993
2 47292  87.8939 231.7631 0001838  76.1883 283.9450 13.12446812105487
ONEWEB-0147             
1 47293U 20100AM  23050.52977714 -.00000258  00000+0 -75191-3 0  9992
2 47293  87.8930 231.7331 0001138 109.1155 251.0097 13.12441973105372
ONEWEB-0115             
1 48042U 21025A   23050.43778251 -.00000254  00000+0 -73086-3 0  9994
2 48042  87.9064 201.4323 0001386  92.3088 267.8200 13.13468341 94267
ONEWEB-0152             
1 48043U 21025B   23050.45049738 -.00000189  00000+0 -55373-3 0  9994
2 48043  87.9062 201.4186 0001387 101.6914 258.4371 13.13472386 94221
ONEWEB-0153             
1 48044U 21025C   23050.65575164 -.00000059  00000+0 -19567-3 0  9995
2 48044  87.9065 201.3668 0001501 104.9466 255.1829 13.13469706 94252
ONEWEB-0154             
1 48045U 21025D   23050.50126292 -.00000014  00000+0 -73555-4 0  9993
2 48045  87.9061 201.4109 0001434 102.5821 257.5469 13.13471360 94181
ONEWEB-0116             
1 48046U 21025E   23050.46742058  .00000143  00000+0  35713-3 0  9997
2 48046  87.9033 201.4175 0001460  88.2350 271.8947 13.13471909 94325
ONEWEB-0150             
1 48047U 21025F   23050.43990996 -.00000270  00000+0 -77351-3 0  9998
2 48047  87.9058 201.4229 0001667 106.7000 253.4312 13.13470510 94217
ONEWEB-0107             
1 48048U 21025G   23050.44201270 -.00000311  00000+0 -88742-3 0  9992
2 48048  87.9056 201.4215 0001762 114.0856 246.0457 13.13468224 94192
ONEWEB-0101             
1 48049U 21025H   23050.48224447  .00000351  00000+0  92530-3 0  9990
2 48049  87.9059 201.4199 0001477 110.2812 249.8476 13.13469177 94178
